STARLINK-31052          
1 58600U 23200M   26068.34764651  .00004470  00000+0  17619-3 0  9995
2 58600  43.0019 170.3452 0001587 237.1277 122.9422 15.26746351123569
AL MUNTHER              
1 63240U 25052AG  26068.64540749  .00017933  00000+0  65015-3 0  9992
2 63240  97.4001 323.9152 0008027 130.7043 229.4895 15.28381521 54798
